SAR-LUPE 2              
1 31797U 07030A   26167.57200068  .00025773  00000+0  46058-3 0  9996
2 31797  98.1046 271.9277 0005078 147.1515 213.0051 15.50008622 56840
SAPPHIRE                
1 39088U 13009C   26167.60414002  .00000083  00000+0  43975-4 0  9992
2 39088  98.4259 347.0738 0010061 248.5596 111.4517 14.35240436696492
PRAETORIAN SDA_602      
1 65565U 25203A   26167.59037658  .00000056  00000+0  39309-4 0  9992
2 65565  81.3031  11.3216 0005742 185.6066 174.5027 13.84342740 38619
PRAETORIAN SDA_603      
1 65566U 25203B   26167.54457683  .00000290  00000+0  25032-3 0  9999
2 65566  81.3037  11.2806 0009255 189.1189 170.9801 13.83905055 38611
PRAETORIAN SDA_604      
1 65567U 25203C   26167.56389513  .00000046  00000+0  30965-4 0  9999
2 65567  81.3053  11.6737 0005218 193.4295 166.6723 13.83047374 38591
PRAETORIAN SDA_605      
1 65568U 25203D   26167.60172558  .00000043  00000+0  28528-4 0  9993
2 65568  81.3018  11.3024 0008054 184.5816 175.5268 13.83434129 38614
PRAETORIAN SDA_606      
1 65569U 25203E   26167.58426097  .00000054  00000+0  38563-4 0  9993
2 65569  81.3055  11.5400 0005695 182.5097 177.6032 13.83407312 38608
PRAETORIAN SDA_607      
1 65570U 25203F   26167.59267588  .00000346  00000+0  29971-3 0  9990
2 65570  81.3040  11.1963 0008615 188.8213 171.2794 13.84284966 38624
PRAETORIAN SDA_608      
1 65571U 25203G   26167.56987416  .00000050  00000+0  34488-4 0  9999
2 65571  81.3006  11.3790 0005729 192.5908 167.5106 13.83816760 38608
PRAETORIAN SDA_609      
1 65572U 25203H   26167.57495607  .00000225  00000+0  19101-3 0  9995
2 65572  81.3048  11.3580 0006698 187.0908 173.0155 13.84212037 38612
PRAETORIAN SDA_610      
1 65573U 25203J   26167.54964514  .00000040  00000+0  25043-4 0  9999
2 65573  81.3007  11.3557 0006402 190.2283 169.8744 13.83851799 38606
PRAETORIAN SDA_611      
1 65574U 25203K   26167.55017613  .00000099  00000+0  79479-4 0  9996
2 65574  81.3008  11.5202 0005255 196.7313 163.3671 13.83309275 38590
PRAETORIAN SDA_612      
1 65575U 25203L   26167.61282500  .00000242  00000+0  20338-3 0  9992
2 65575  81.3030  11.0506 0009016 188.3847 171.7161 13.85038991 38634
PRAETORIAN SDA_613      
1 65576U 25203M   26167.55667184  .00000038  00000+0  24196-4 0  9991
2 65576  81.2998  11.5109 0005519 185.6452 174.4643 13.82764923 38595
PRAETORIAN SDA_614      
1 65577U 25203N   26167.60189210  .00000034  00000+0  19651-4 0  9993
2 65577  81.3014  11.1380 0006979 185.2550 174.8535 13.84778018 38630
PRAETORIAN SDA_615      
1 65578U 25203P   26167.57863516  .00000210  00000+0  17678-3 0  9990
2 65578  81.3024  11.1236 0008910 186.9317 173.1718 13.84435937 38622
PRAETORIAN SDA_616      
1 65579U 25203Q   26167.54937120  .00000140  00000+0  11689-3 0  9999
2 65579  81.3064  11.6660 0005178 194.7539 165.3466 13.83267550 38591
PRAETORIAN SDA_617      
1 65580U 25203R   26167.57092056  .00000021  00000+0  79648-5 0  9993
2 65580  81.3036  11.4772 0007216 185.8481 174.2592 13.83149936 38604
PRAETORIAN SDA_618      
1 65581U 25203S   26167.54478806  .00000283  00000+0  24101-3 0  9994
2 65581  81.3025  11.0843 0009561 189.3744 170.7236 13.84669774 38620
PRAETORIAN SDA_619      
1 65582U 25203T   26167.58033507  .00000213  00000+0  18152-3 0  9996
2 65582  81.3045  11.3479 0008051 187.2464 172.8577 13.83805608 39247
PRAETORIAN SDA_620      
1 65583U 25203U   26167.60824219  .00000230  00000+0  19780-3 0  9995
2 65583  81.3029  11.3424 0007479 182.5183 177.5937 13.83617904 38611
PRAETORIAN SDA_621      
1 65584U 25203V   26167.58210621  .00000050  00000+0  34047-4 0  9993
2 65584  81.3021  11.2848 0007314 180.2810 179.8343 13.83801154 38611
PRAETORIAN SDA_601      
1 65585U 25203W   26167.55246035  .00000219  00000+0  18938-3 0  9996
2 65585  81.3035  11.6079 0005162 197.8637 162.2339 13.83167593 38597
