OBJECT_NAME,OBJECT_ID,EPOCH,MEAN_MOTION,ECCENTRICITY,INCLINATION,RA_OF_ASC_NODE,ARG_OF_PERICENTER,MEAN_ANOMALY,EPHEMERIS_TYPE,CLASSIFICATION_TYPE,NORAD_CAT_ID,ELEMENT_SET_NO,REV_AT_EPOCH,BSTAR,MEAN_MOTION_DOT,MEAN_MOTION_DDOT
SAR-LUPE 2,2007-030A,2026-06-16T13:43:40.858752,15.50008622,.00050782,98.1046,271.9277,147.1515,213.0051,0,U,31797,999,5684,.46057641E-3,.25773E-3,0
SAPPHIRE,2013-009C,2026-06-16T14:29:57.697728,14.35240436,.00100616,98.4259,347.0738,248.5596,111.4517,0,U,39088,999,69649,.43975314E-4,.83E-6,0
PRAETORIAN SDA_602,2025-203A,2026-06-16T14:10:08.536512,13.84342740,.00057427,81.3031,11.3216,185.6066,174.5027,0,U,65565,999,3861,.393088E-4,.56E-6,0
PRAETORIAN SDA_603,2025-203B,2026-06-16T13:04:11.438112,13.83905055,.00092551,81.3037,11.2806,189.1189,170.9801,0,U,65566,999,3861,.25031619E-3,.29E-5,0
PRAETORIAN SDA_604,2025-203C,2026-06-16T13:32:00.539232,13.83047374,.00052182,81.3053,11.6737,193.4295,166.6723,0,U,65567,999,3859,.30965021E-4,.46E-6,0
PRAETORIAN SDA_605,2025-203D,2026-06-16T14:26:29.090112,13.83434129,.00080542,81.3018,11.3024,184.5816,175.5268,0,U,65568,999,3861,.28528389E-4,.43E-6,0
PRAETORIAN SDA_606,2025-203E,2026-06-16T14:01:20.147808,13.83407312,.00056952,81.3055,11.5400,182.5097,177.6032,0,U,65569,999,3860,.38562524E-4,.54E-6,0
PRAETORIAN SDA_607,2025-203F,2026-06-16T14:13:27.196032,13.84284966,.00086153,81.3040,11.1963,188.8213,171.2794,0,U,65570,999,3862,.29970564E-3,.346E-5,0
PRAETORIAN SDA_608,2025-203G,2026-06-16T13:40:37.127424,13.83816760,.00057294,81.3006,11.3790,192.5908,167.5106,0,U,65571,999,3860,.34487928E-4,.5E-6,0
PRAETORIAN SDA_609,2025-203H,2026-06-16T13:47:56.204448,13.84212037,.00066981,81.3048,11.3580,187.0908,173.0155,0,U,65572,999,3861,.19101441E-3,.225E-5,0
PRAETORIAN SDA_610,2025-203J,2026-06-16T13:11:29.340096,13.83851799,.0006402,81.3007,11.3557,190.2283,169.8744,0,U,65573,999,3860,.25042592E-4,.4E-6,0
PRAETORIAN SDA_611,2025-203K,2026-06-16T13:12:15.217632,13.83309275,.00052551,81.3008,11.5202,196.7313,163.3671,0,U,65574,999,3859,.79479235E-4,.99E-6,0
PRAETORIAN SDA_612,2025-203L,2026-06-16T14:42:28.080000,13.85038991,.00090169,81.3030,11.0506,188.3847,171.7161,0,U,65575,999,3863,.20337562E-3,.242E-5,0
PRAETORIAN SDA_613,2025-203M,2026-06-16T13:21:36.446976,13.82764923,.00055193,81.2998,11.5109,185.6452,174.4643,0,U,65576,999,3859,.24196237E-4,.38E-6,0
PRAETORIAN SDA_614,2025-203N,2026-06-16T14:26:43.477440,13.84778018,.00069792,81.3014,11.1380,185.2550,174.8535,0,U,65577,999,3863,.19651089E-4,.34E-6,0
PRAETORIAN SDA_615,2025-203P,2026-06-16T13:53:14.077824,13.84435937,.00089109,81.3024,11.1236,186.9317,173.1718,0,U,65578,999,3862,.17677551E-3,.21E-5,0
PRAETORIAN SDA_616,2025-203Q,2026-06-16T13:11:05.671680,13.83267550,.00051789,81.3064,11.6660,194.7539,165.3466,0,U,65579,999,3859,.11688649E-3,.14E-5,0
PRAETORIAN SDA_617,2025-203R,2026-06-16T13:42:07.536384,13.83149936,.00072168,81.3036,11.4772,185.8481,174.2592,0,U,65580,999,3860,.7964818E-5,.21E-6,0
PRAETORIAN SDA_618,2025-203S,2026-06-16T13:04:29.688384,13.84669774,.00095613,81.3025,11.0843,189.3744,170.7236,0,U,65581,999,3862,.24100862E-3,.283E-5,0
PRAETORIAN SDA_619,2025-203T,2026-06-16T13:55:40.950048,13.83805608,.0008051,81.3045,11.3479,187.2464,172.8577,0,U,65582,999,3924,.18152073E-3,.213E-5,0
PRAETORIAN SDA_620,2025-203U,2026-06-16T14:35:52.125216,13.83617904,.0007479,81.3029,11.3424,182.5183,177.5937,0,U,65583,999,3861,.19779736E-3,.23E-5,0
PRAETORIAN SDA_621,2025-203V,2026-06-16T13:58:13.976544,13.83801154,.00073148,81.3021,11.2848,180.2810,179.8343,0,U,65584,999,3861,.34047325E-4,.5E-6,0
PRAETORIAN SDA_601,2025-203W,2026-06-16T13:15:32.574240,13.83167593,.00051625,81.3035,11.6079,197.8637,162.2339,0,U,65585,999,3859,.18937759E-3,.219E-5,0
